     3.05           N: GNSS NAV DATA    M: Mixed            RINEX VERSION / TYPE
                                        20251221 065627 UTC PGM / RUN BY / DATE 
                                                            END OF HEADER       
                                                                                                                                                                                                                                                                                                                                                                                                                                                                                                                                                                                                                                                                                                                                                                                                                                                                                                                                                                                                                                                                                                                                                                                                                                                                                                                                                                                                                                                                                                                                                                                                                                                                                                                                                                                                                                                                                                                                                                                                                                                                                                                                                                                                                                                                                                                                                                                                                                                                                                                                                                                                                                                                                                                                                                                                                                                                                                                                                                                                                                                                                                                                                                                                                                                                                                                                                                                                                                                                                                                                                                                                                                                                                                                                                                                                                                                                                                                                                                                                            
C 7 2025 12 21  7  0  0  .406747451052E-03  .248379095069E-10  .000000000000E+00
      .000000000000E+00  .562656250000E+03  .805390690612E-09  .303722573715E+01
      .181365758181E-04  .476075918414E-02  .234986655414E-04  .649321258736E+04
      .252000000000E+05 -.619329512119E-07 -.306771747765E+01 -.128988176584E-06
      .836287263887E+00 -.520453125000E+03 -.253186689821E+01 -.144077429975E-08
     -.762174604774E-09  .000000000000E+00  .104200000000E+04  .000000000000E+00
      .200000000000E+01  .000000000000E+00  .145000000000E-07  .110000000000E-08
      .252218000000E+05  .000000000000E+00  .000000000000E+00  .000000000000E+00
C 9 2025 12 21  7  0  0  .149492057972E-03  .336131122936E-10  .000000000000E+00
      .000000000000E+00  .465312500000E+02  .166864093416E-08 -.187310776271E+01
      .146590173244E-05  .148287704214E-01  .549666583538E-05  .649318772888E+04
      .252000000000E+05  .123400241137E-06  .135186621968E+01 -.558793544769E-07
      .951621061283E+00  .734843750000E+02 -.227193883962E+01 -.177578825442E-08
      .684671376454E-09  .000000000000E+00  .104200000000E+04  .000000000000E+00
      .200000000000E+01  .000000000000E+00  .660000000000E-08  .390000000000E-08
      .252228000000E+05  .100000000000E+01  .000000000000E+00  .000000000000E+00
C10 2025 12 21  7  0  0 -.359394354746E-03 -.208455475104E-10  .000000000000E+00
      .000000000000E+00  .553984375000E+03  .808605110220E-09  .267223576338E+01
      .179386697710E-04  .108773265965E-01  .241817906499E-04  .649308726120E+04
      .252000000000E+05 -.484287738800E-07 -.307278709298E+01 -.155996531248E-06
      .838632005578E+00 -.548937500000E+03 -.241455510976E+01 -.141720188929E-08
     -.786461330700E-09  .000000000000E+00  .104200000000E+04  .000000000000E+00
      .200000000000E+01  .000000000000E+00  .560000000000E-08  .300000000000E-08
      .252238000000E+05  .000000000000E+00  .000000000000E+00  .000000000000E+00
C16 2025 12 21  7  0  0 -.882413121872E-03  .868016769573E-11  .000000000000E+00
      .000000000000E+00  .450625000000E+02  .160756696162E-08 -.163431294116E+01
      .131083652377E-05  .915982131846E-02  .629853457212E-05  .649375082207E+04
      .252000000000E+05  .132713466883E-06  .130516237860E+01  .456348061562E-07
      .962018530630E+00  .514062500000E+02 -.218956717299E+01 -.176078762959E-08
      .721458623076E-09  .000000000000E+00  .104200000000E+04  .000000000000E+00
      .200000000000E+01  .000000000000E+00 -.270000000000E-08  .480000000000E-08
      .252248000000E+05  .000000000000E+00  .000000000000E+00  .000000000000E+00
C21 2025 12 21  7  0  0 -.902803963982E-03  .591171556152E-11  .000000000000E+00
      .000000000000E+00 -.178671875000E+03  .318406120036E-08 -.232676095148E+01
     -.884570181370E-05  .560636515729E-03  .683451071382E-05  .528263766479E+04
      .252000000000E+05 -.465661287308E-08 -.362295593191E+00  .214204192162E-07
      .986359325276E+00  .233796875000E+03 -.529257013085E+00 -.648884171487E-08
     -.191079387795E-09  .000000000000E+00  .104200000000E+04  .000000000000E+00
      .200000000000E+01  .000000000000E+00  .133000000000E-07  .133000000000E-07
      .252258000000E+05  .100000000000E+01  .000000000000E+00  .000000000000E+00
C26 2025 12 21  7  0  0 -.569676165469E-03 -.552446977053E-11  .000000000000E+00
      .000000000000E+00  .343750000000E+00  .441125517506E-08  .472438391092E+00
      .689178705215E-07  .108484702650E-02  .471994280815E-05  .528264344406E+04
      .252000000000E+05 -.870786607265E-07  .169777064966E+01 -.465661287308E-09
      .945074508730E+00  .259343750000E+03  .885368616025E+00 -.686421449351E-08
      .428589281035E-11  .000000000000E+00  .104200000000E+04  .000000000000E+00
      .200000000000E+01  .000000000000E+00 -.320000000000E-08 -.320000000000E-08
      .252268000000E+05  .100000000000E+01  .000000000000E+00  .000000000000E+00
C29 2025 12 21  7  0  0  .539299566299E-03  .508659780962E-11  .000000000000E+00
      .000000000000E+00  .164218750000E+03  .383301680339E-08 -.597909847974E-01
      .800751149654E-05  .899196602404E-04  .665243715048E-05  .528266279221E+04
      .252000000000E+05  .149011611938E-07 -.250725064633E+01  .605359673500E-08
      .948926197945E+00  .223515625000E+03  .957199685792E+00 -.677849663731E-08
      .138934358602E-09  .000000000000E+00  .104200000000E+04  .000000000000E+00
      .200000000000E+01  .000000000000E+00  .200000000000E-08  .200000000000E-08
      .252278000000E+05  .100000000000E+01  .000000000000E+00  .000000000000E+00
C35 2025 12 21  7  0  0 -.202561495826E-03 -.137792000032E-10  .000000000000E+00
      .000000000000E+00  .175687500000E+03  .376979988444E-08 -.568285528653E+00
      .867713242769E-05  .841127941385E-03  .671576708555E-05  .528262717819E+04
      .252000000000E+05  .218860805035E-07 -.250633402136E+01 -.139698386192E-07
      .947115215082E+00  .219140625000E+03  .589494724787E+00 -.680921220245E-08
      .140720147273E-09  .000000000000E+00  .104200000000E+04  .000000000000E+00
      .200000000000E+01  .000000000000E+00 -.800000000000E-09 -.800000000000E-09
      .252288000000E+05  .100000000000E+01  .000000000000E+00  .000000000000E+00
C39 2025 12 21  7  0  0 -.170730054379E-04 -.415667500420E-12  .000000000000E+00
      .000000000000E+00  .448125000000E+02  .156470803351E-08 -.804143938611E+00
      .122375786304E-05  .371699384414E-02  .773742794991E-05  .649344953346E+04
      .252000000000E+05  .647269189358E-07  .123231709260E+01  .833533704281E-07
      .962959080162E+00  .564062500000E+01 -.278896164875E+01 -.176114478732E-08
      .822534261854E-09  .000000000000E+00  .104200000000E+04  .000000000000E+00
      .200000000000E+01  .000000000000E+00  .820000000000E-08  .820000000000E-08
      .252308000000E+05  .100000000000E+01  .000000000000E+00  .000000000000E+00
